
# Worst residual: 26.57 km
# MJD 58600.000000 (2019 Apr 27  0:00)
C1NHY61 = A10hwSu = prob. Vela
1 89962U 00000ABL 19117.49919926  .00000000  00000-0  00000-0 0 11782
2 89962 046.5920 237.5595 5388697 085.1661 002.1293 00.21406700    08

# Worst residual: 4.34 km
# MJD 58601.000000 (2019 Apr 28  0:00)
C1NHY61 = A10hwSu = prob. Vela
1 89962U 00000ABL 19118.49919926  .00000000  00000-0  00000-0 0 11783
2 89962 046.5532 237.5402 5394057 085.1527 079.0757 00.21358262    09

# Worst residual: 0.76 km
# MJD 58602.000000 (2019 Apr 29  0:00)
C1NHY61 = A10hwSu = prob. Vela
1 89962U 00000ABL 19119.49919926  .00000000  00000-0  00000-0 0 11784
2 89962 046.5437 237.4919 5390445 085.1481 156.0361 00.21354061    01

# Worst residual: 6.26 km
# MJD 58603.000000 (2019 Apr 30  0:00)
C1NHY61 = A10hwSu = prob. Vela
1 89962U 00000ABL 19120.49919926  .00000000  00000-0  00000-0 0 11786
2 89962 046.5386 237.4618 5389453 085.1463 232.9338 00.21358956    02

# Worst residual: 18.32 km
# MJD 58604.000000 (2019 May  1  0:00)
C1NHY61 = A10hwSu = prob. Vela
1 89962U 00000ABL 19121.49919926  .00000000  00000-0  00000-0 0 11787
2 89962 046.5329 237.4213 5382553 085.2620 309.6738 00.21406796    02

# Worst residual: 29.47 km
# MJD 58605.000000 (2019 May  2  0:00)
C1NHY61 = A10hwSu = prob. Vela
1 89962U 00000ABL 19122.49919926  .00000000  00000-0  00000-0 0 11788
2 89962 046.5409 237.4068 5386040 085.1843 026.7329 00.21346933    09

# Worst residual: 12.33 km
# MJD 58606.000000 (2019 May  3  0:00)
C1NHY61 = A10hwSu = prob. Vela
1 89962U 00000ABL 19123.49919926  .00000000  00000-0  00000-0 0 11789
2 89962 046.5255 237.3649 5379624 085.2165 103.6459 00.21332689    02

# Worst residual: 5.46 km
# MJD 58607.000000 (2019 May  4  0:00)
C1NHY61 = A10hwSu = prob. Vela
1 89962U 00000ABL 19124.49919926  .00000000  00000-0  00000-0 0 11780
2 89962 046.5246 237.3369 5373795 085.0797 180.8680 00.21346392    02

# Worst residual: 6.44 km
# MJD 58608.000000 (2019 May  5  0:00)
C1NHY61 = A10hwSu = prob. Vela
1 89962U 00000ABL 19125.49919926  .00000000  00000-0  00000-0 0 11781
2 89962 046.5176 237.3135 5370940 085.0328 257.8325 00.21345509    04

# Worst residual: 24.32 km
# MJD 58609.000000 (2019 May  6  0:00)
C1NHY61 = A10hwSu = prob. Vela
1 89962U 00000ABL 19126.49919926  .00000000  00000-0  00000-0 0 11782
2 89962 046.5105 237.2731 5356644 085.1451 334.5486 00.21422717    08

# Worst residual: 23.13 km
# MJD 58610.000000 (2019 May  7  0:00)
C1NHY61 = A10hwSu = prob. Vela
1 89962U 00000ABL 19127.49919926  .00000000  00000-0  00000-0 0 11783
2 89962 046.5042 237.2318 5363629 085.0576 051.6167 00.21369190    05

# Worst residual: 4.43 km
# MJD 58611.000000 (2019 May  8  0:00)
C1NHY61 = A10hwSu = prob. Vela
1 89962U 00000ABL 19128.49919926  .00000000  00000-0  00000-0 0 11784
2 89962 046.4880 237.1768 5366495 085.0315 128.5771 00.21365465    03

# Worst residual: 4.48 km
# MJD 58612.000000 (2019 May  9  0:00)
C1NHY61 = A10hwSu = prob. Vela
1 89962U 00000ABL 19129.49919926  .00000000  00000-0  00000-0 0 11785
2 89962 046.4867 237.1696 5362766 084.9277 205.7508 00.21366924    07

# Worst residual: 9.96 km
# MJD 58613.000000 (2019 May 10  0:00)
C1NHY61 = A10hwSu = prob. Vela
1 89962U 00000ABL 19130.49919926  .00000000  00000-0  00000-0 0 11787
2 89962 046.4711 237.1763 5359726 084.8975 282.7069 00.21374050    02

# Worst residual: 35.84 km
# MJD 58614.000000 (2019 May 11  0:00)
C1NHY61 = A10hwSu = prob. Vela
1 89962U 00000ABL 19131.49919926  .00000000  00000-0  00000-0 0 11788
2 89962 046.4902 237.1461 5344442 084.8468 359.6745 00.21423819    08

# Worst residual: 8.45 km
# MJD 58615.000000 (2019 May 12  0:00)
C1NHY61 = A10hwSu = prob. Vela
1 89962U 00000ABL 19132.49919926  .00000000  00000-0  00000-0 0 11789
2 89962 046.4569 237.1319 5354589 084.7594 076.6704 00.21372824    01

# Worst residual: 3.86 km
# MJD 58616.000000 (2019 May 13  0:00)
C1NHY61 = A10hwSu = prob. Vela
1 89962U 00000ABL 19133.49919926  .00000000  00000-0  00000-0 0 11780
2 89962 046.4574 237.1065 5351190 084.7368 153.6852 00.21367438    04

# Worst residual: 3.95 km
# MJD 58617.000000 (2019 May 14  0:00)
C1NHY61 = A10hwSu = prob. Vela
1 89962U 00000ABL 19134.49919926  .00000000  00000-0  00000-0 0 11781
2 89962 046.4540 237.0601 5349206 084.6868 230.7847 00.21367673    03

# Worst residual: 28.95 km
# MJD 58618.000000 (2019 May 15  0:00)
C1NHY61 = A10hwSu = prob. Vela
1 89962U 00000ABL 19135.49919926  .00000000  00000-0  00000-0 0 11782
2 89962 046.4789 236.9516 5338738 084.8191 307.5496 00.21407954    00

# Worst residual: 28.38 km
# MJD 58619.000000 (2019 May 16  0:00)
C1NHY61 = A10hwSu = prob. Vela
1 89962U 00000ABL 19136.49919926  .00000000  00000-0  00000-0 0 11783
2 89962 046.4929 236.9172 5337503 084.7221 024.6381 00.21372913    02

# Worst residual: 6.32 km
# MJD 58620.000000 (2019 May 17  0:00)
C1NHY61 = A10hwSu = prob. Vela
1 89962U 00000ABL 19137.49919926  .00000000  00000-0  00000-0 0 11784
2 89962 046.4848 236.8828 5340119 084.7830 101.4157 00.21324525    03

# Worst residual: 10.51 km
# MJD 58621.000000 (2019 May 18  0:00)
C1NHY61 = A10hwSu = prob. Vela
1 89962U 00000ABL 19138.49919926  .00000000  00000-0  00000-0 0 11785
2 89962 046.4858 236.8577 5345244 084.6005 178.6708 00.21362219    02

# Worst residual: 4.70 km
# MJD 58622.000000 (2019 May 19  0:00)
C1NHY61 = A10hwSu = prob. Vela
1 89962U 00000ABL 19139.49919926  .00000000  00000-0  00000-0 0 11786
2 89962 046.4791 236.8317 5349374 084.4924 255.9072 00.21364790    05

# Worst residual: 23.53 km
# MJD 58623.000000 (2019 May 20  0:00)
C1NHY61 = A10hwSu = prob. Vela
1 89962U 00000ABL 19140.49919926  .00000000  00000-0  00000-0 0 11788
2 89962 046.4633 236.8078 5337965 084.5006 332.7835 00.21403615    00

# Worst residual: 24.40 km
# MJD 58624.000000 (2019 May 21  0:00)
C1NHY61 = A10hwSu = prob. Vela
1 89962U 00000ABL 19141.49919926  .00000000  00000-0  00000-0 0 11789
2 89962 046.4585 236.7683 5338815 084.3975 049.8907 00.21394161    06

# Worst residual: 2.84 km
# MJD 58625.000000 (2019 May 22  0:00)
C1NHY61 = A10hwSu = prob. Vela
1 89962U 00000ABL 19142.49919926  .00000000  00000-0  00000-0 0 11780
2 89962 046.4504 236.7223 5343894 084.4676 126.6593 00.21353963    09

# Worst residual: 1.97 km
# MJD 58626.000000 (2019 May 23  0:00)
C1NHY61 = A10hwSu = prob. Vela
1 89962U 00000ABL 19143.49919926  .00000000  00000-0  00000-0 0 11781
2 89962 046.4432 236.6671 5344491 084.4551 203.6222 00.21359032    09

# Worst residual: 6.55 km
# MJD 58627.000000 (2019 May 24  0:00)
C1NHY61 = A10hwSu = prob. Vela
1 89962U 00000ABL 19144.49919926  .00000000  00000-0  00000-0 0 11782
2 89962 046.4415 236.6142 5345670 084.4930 280.5466 00.21375612    00

# Worst residual: 28.09 km
# MJD 58628.000000 (2019 May 25  0:00)
C1NHY61 = A10hwSu = prob. Vela
1 89962U 00000ABL 19145.49919926  .00000000  00000-0  00000-0 0 11783
2 89962 046.4714 236.5732 5335538 084.4897 357.5350 00.21416241    01
